PHISAT 2                
1 60470U 24149C   26068.78834181  .00008925  00000+0  31421-3 0  9996
2 60470  97.3806 148.6498 0001175 168.6230 191.5037 15.29548631 86792
STARLINK-35912          
1 66882U 25283E   26068.25657913  .00033351  00000+0  11334-2 0  9998
2 66882  53.1609  26.4811 0000782  92.2957 267.8133 15.30191279 15777
